{"type": "FeatureCollection", "features": [ {"type": "Feature", "properties": {"norad_id": 67083, "name": "STARLINK-36170", "group": "last-30-days", "lat": -44.44028673427731, "lon": -173.56167406227615, "alt_km": 359.4273928577495, "timestamp": "2025-12-27T17:24:56.109090+00:00", "meta": {"OBJECT_NAME": "STARLINK-36170", "OBJECT_ID": "2025-298J", "EPOCH": "2025-12-27T12:00:02.000160", "MEAN_MOTION": 15.72231131, "ECCENTRICITY": 0.000334, "INCLINATION": 69.9995, "RA_OF_ASC_NODE": 208.0023, "ARG_OF_PERICENTER": 271.6978, "MEAN_ANOMALY": 203.8649, "EPHEMERIS_TYPE": 0, "CLASSIFICATION_TYPE": "U", "NORAD_CAT_ID": 67083, "ELEMENT_SET_NO": 999, "REV_AT_EPOCH": 335, "BSTAR": -0.01425, "MEAN_MOTION_DOT": -0.01671605, "MEAN_MOTION_DDOT": 0}, "tle": {"line1": "1 67083U 25298J   25361.50002315 -.01671605  00000+0 -14250-1 0  9993", "line2": "2 67083  69.9995 208.0023 0003340 271.6978 203.8649 15.72231131  3357"}}, "geometry": {"type": "Point", "coordinates": [-173.56167406227615, -44.44028673427731]}}, {"type": "Feature", "properties": {"norad_id": 67084, "name": "STARLINK-36166", "group": "last-30-days", "lat": -42.70332820340455, "lon": -172.27854159142208, "alt_km": 359.40324887505085, "timestamp": "2025-12-27T17:24:56.109100+00:00", "meta": {"OBJECT_NAME": "STARLINK-36166", "OBJECT_ID": "2025-298K", "EPOCH": "2025-12-27T12:00:02.000160", "MEAN_MOTION": 15.72229423, "ECCENTRICITY": 0.0003371, "INCLINATION": 69.9998, "RA_OF_ASC_NODE": 207.9997, "ARG_OF_PERICENTER": 271.7483, "MEAN_ANOMALY": 205.7891, "EPHEMERIS_TYPE": 0, "CLASSIFICATION_TYPE": "U", "NORAD_CAT_ID": 67084, "ELEMENT_SET_NO": 999, "REV_AT_EPOCH": 329, "BSTAR": -0.014273, "MEAN_MOTION_DOT": -0.01673859, "MEAN_MOTION_DDOT": 0}, "tle": {"line1": "1 67084U 25298K   25361.50002315 -.01673859  00000+0 -14273-1 0  9992", "line2": "2 67084  69.9998 207.9997 0003371 271.7483 205.7891 15.72229423  3299"}}, "geometry": {"type": "Point", "coordinates": [-172.27854159142208, -42.70332820340455]}}, {"type": "Feature", "properties": {"norad_id": 67085, "name": "STARLINK-35794", "group": "last-30-days", "lat": -40.96711811294154, "lon": -171.07527400498608, "alt_km": 359.38350290892413, "timestamp": "2025-12-27T17:24:56.109112+00:00", "meta": {"OBJECT_NAME": "STARLINK-35794", "OBJECT_ID": "2025-298L", "EPOCH": "2025-12-27T12:00:02.000160", "MEAN_MOTION": 15.72227871, "ECCENTRICITY": 0.0003399, "INCLINATION": 69.9998, "RA_OF_ASC_NODE": 207.9975, "ARG_OF_PERICENTER": 271.6206, "MEAN_ANOMALY": 207.8751, "EPHEMERIS_TYPE": 0, "CLASSIFICATION_TYPE": "U", "NORAD_CAT_ID": 67085, "ELEMENT_SET_NO": 999, "REV_AT_EPOCH": 335, "BSTAR": -0.014302, "MEAN_MOTION_DOT": -0.01676836, "MEAN_MOTION_DDOT": 0}, "tle": {"line1": "1 67085U 25298L   25361.50002315 -.01676836  00000+0 -14302-1 0  9994", "line2": "2 67085  69.9998 207.9975 0003399 271.6206 207.8751 15.72227871  3358"}}, "geometry": {"type": "Point", "coordinates": [-171.07527400498608, -40.96711811294154]}}, {"type": "Feature", "properties": {"norad_id": 67086, "name": "STARLINK-35841", "group": "last-30-days", "lat": -39.09185262497305, "lon": -169.85408280240225, "alt_km": 359.4271883100246, "timestamp": "2025-12-27T17:24:56.109125+00:00", "meta": {"OBJECT_NAME": "STARLINK-35841", "OBJECT_ID": "2025-298M", "EPOCH": "2025-12-27T12:00:02.000160", "MEAN_MOTION": 15.72222298, "ECCENTRICITY": 0.0003365, "INCLINATION": 69.9997, "RA_OF_ASC_NODE": 207.9947, "ARG_OF_PERICENTER": 270.7219, "MEAN_ANOMALY": 210.8778, "EPHEMERIS_TYPE": 0, "CLASSIFICATION_TYPE": "U", "NORAD_CAT_ID": 67086, "ELEMENT_SET_NO": 999, "REV_AT_EPOCH": 335, "BSTAR": -0.014359, "MEAN_MOTION_DOT": -0.01682328, "MEAN_MOTION_DDOT": 0}, "tle": {"line1": "1 67086U 25298M   25361.50002315 -.01682328  00000+0 -14359-1 0  9990", "line2": "2 67086  69.9997 207.9947 0003365 270.7219 210.8778 15.72222298  3355"}}, "geometry": {"type": "Point", "coordinates": [-169.85408280240225, -39.09185262497305]}}, {"type": "Feature", "properties": {"norad_id": 67087, "name": "STARLINK-35842", "group": "last-30-days", "lat": -65.59731887892868, "lon": 153.99411982156724, "alt_km": 375.4001458751327, "timestamp": "2025-12-27T17:24:56.109135+00:00", "meta": {"OBJECT_NAME": "STARLINK-35842", "OBJECT_ID": "2025-298N", "EPOCH": "2025-12-27T12:00:02.000160", "MEAN_MOTION": 15.67031349, "ECCENTRICITY": 0.00035, "INCLINATION": 69.9998, "RA_OF_ASC_NODE": 208.0288, "ARG_OF_PERICENTER": 270.188, "MEAN_ANOMALY": 182.1508, "EPHEMERIS_TYPE": 0, "CLASSIFICATION_TYPE": "U", "NORAD_CAT_ID": 67087, "ELEMENT_SET_NO": 999, "REV_AT_EPOCH": 335, "BSTAR": -0.026254, "MEAN_MOTION_DOT": -0.02458514, "MEAN_MOTION_DDOT": 0}, "tle": {"line1": "1 67087U 25298N   25361.50002315 -.02458514  00000+0 -26254-1 0  9997", "line2": "2 67087  69.9998 208.0288 0003500 270.1880 182.1508 15.67031349  3357"}}, "geometry": {"type": "Point", "coordinates": [153.99411982156724, -65.59731887892868]}}, {"type": "Feature", "properties": {"norad_id": 67088, "name": "STARLINK-35882", "group": "last-30-days", "lat": -35.56220295109754, "lon": -167.73945582891582, "alt_km": 359.4865691150735, "timestamp": "2025-12-27T17:24:56.109147+00:00", "meta": {"OBJECT_NAME": "STARLINK-35882", "OBJECT_ID": "2025-298P", "EPOCH": "2025-12-27T12:00:02.000160", "MEAN_MOTION": 15.72233547, "ECCENTRICITY": 0.0003213, "INCLINATION": 69.9998, "RA_OF_ASC_NODE": 207.9905, "ARG_OF_PERICENTER": 269.8241, "MEAN_ANOMALY": 215.6897, "EPHEMERIS_TYPE": 0, "CLASSIFICATION_TYPE": "U", "NORAD_CAT_ID": 67088, "ELEMENT_SET_NO": 999, "REV_AT_EPOCH": 335, "BSTAR": -0.014689, "MEAN_MOTION_DOT": -0.01716993, "MEAN_MOTION_DDOT": 0}, "tle": {"line1": "1 67088U 25298P   25361.50002315 -.01716993  00000+0 -14689-1 0  9994", "line2": "2 67088  69.9998 207.9905 0003213 269.8241 215.6897 15.72233547  3352"}}, "geometry": {"type": "Point", "coordinates": [-167.73945582891582, -35.56220295109754]}}, {"type": "Feature", "properties": {"norad_id": 67089, "name": "STARLINK-35763", "group": "last-30-days", "lat": -33.68325266058203, "lon": -166.69841129558293, "alt_km": 359.38339607138914, "timestamp": "2025-12-27T17:24:56.109157+00:00", "meta": {"OBJECT_NAME": "STARLINK-35763", "OBJECT_ID": "2025-298Q", "EPOCH": "2025-12-27T12:00:02.000160", "MEAN_MOTION": 15.72206687, "ECCENTRICITY": 0.0003253, "INCLINATION": 69.9995, "RA_OF_ASC_NODE": 207.9873, "ARG_OF_PERICENTER": 271.6748, "MEAN_ANOMALY": 215.9201, "EPHEMERIS_TYPE": 0, "CLASSIFICATION_TYPE": "U", "NORAD_CAT_ID": 67089, "ELEMENT_SET_NO": 999, "REV_AT_EPOCH": 335, "BSTAR": -0.014329, "MEAN_MOTION_DOT": -0.01678103, "MEAN_MOTION_DDOT": 0}, "tle": {"line1": "1 67089U 25298Q   25361.50002315 -.01678103  00000+0 -14329-1 0  9996", "line2": "2 67089  69.9995 207.9873 0003253 271.6748 215.9201 15.72206687  3358"}}, "geometry": {"type": "Point", "coordinates": [-166.69841129558293, -33.68325266058203]}}, {"type": "Feature", "properties": {"norad_id": 67090, "name": "STARLINK-36060", "group": "last-30-days", "lat": -31.927950807630715, "lon": -165.76983385060822, "alt_km": 359.50070120494365, "timestamp": "2025-12-27T17:24:56.109167+00:00", "meta": {"OBJECT_NAME": "STARLINK-36060", "OBJECT_ID": "2025-298R", "EPOCH": "2025-12-27T12:00:02.000160", "MEAN_MOTION": 15.72203845, "ECCENTRICITY": 0.0003351, "INCLINATION": 69.9994, "RA_OF_ASC_NODE": 207.9847, "ARG_OF_PERICENTER": 268.378, "MEAN_ANOMALY": 221.1516, "EPHEMERIS_TYPE": 0, "CLASSIFICATION_TYPE": "U", "NORAD_CAT_ID": 67090, "ELEMENT_SET_NO": 999, "REV_AT_EPOCH": 329, "BSTAR": -0.014811, "MEAN_MOTION_DOT": -0.01727754, "MEAN_MOTION_DDOT": 0}, "tle": {"line1": "1 67090U 25298R   25361.50002315 -.01727754  00000+0 -14811-1 0  9991", "line2": "2 67090  69.9994 207.9847 0003351 268.3780 221.1516 15.72203845  3292"}}, "geometry": {"type": "Point", "coordinates": [-165.76983385060822, -31.927950807630715]}}, {"type": "Feature", "properties": {"norad_id": 67091, "name": "STARLINK-36097", "group": "last-30-days", "lat": -30.081607502423438, "lon": -164.83308886145045, "alt_km": 359.3473146924598, "timestamp": "2025-12-27T17:24:56.109176+00:00", "meta": {"OBJECT_NAME": "STARLINK-36097", "OBJECT_ID": "2025-298S", "EPOCH": "2025-12-27T12:00:02.000160", "MEAN_MOTION": 15.72199205, "ECCENTRICITY": 0.0003285, "INCLINATION": 69.9998, "RA_OF_ASC_NODE": 207.9828, "ARG_OF_PERICENTER": 270.0749, "MEAN_ANOMALY": 221.4636, "EPHEMERIS_TYPE": 0, "CLASSIFICATION_TYPE": "U", "NORAD_CAT_ID": 67091, "ELEMENT_SET_NO": 999, "REV_AT_EPOCH": 335, "BSTAR": -0.014321, "MEAN_MOTION_DOT": -0.01676815, "MEAN_MOTION_DDOT": 0}, "tle": {"line1": "1 67091U 25298S   25361.50002315 -.01676815  00000+0 -14321-1 0  9999", "line2": "2 67091  69.9998 207.9828 0003285 270.0749 221.4636 15.72199205  3354"}}, "geometry": {"type": "Point", "coordinates": [-164.83308886145045, -30.081607502423438]}}, {"type": "Feature", "properties": {"norad_id": 67092, "name": "STARLINK-35792", "group": "last-30-days", "lat": -28.350785038363345, "lon": -163.98981296591435, "alt_km": 359.2192389566708, "timestamp": "2025-12-27T17:24:56.109186+00:00", "meta": {"OBJECT_NAME": "STARLINK-35792", "OBJECT_ID": "2025-298T", "EPOCH": "2025-12-27T12:00:02.000160", "MEAN_MOTION": 15.72202405, "ECCENTRICITY": 0.0003412, "INCLINATION": 69.9998, "RA_OF_ASC_NODE": 207.9806, "ARG_OF_PERICENTER": 270.7383, "MEAN_ANOMALY": 222.6795, "EPHEMERIS_TYPE": 0, "CLASSIFICATION_TYPE": "U", "NORAD_CAT_ID": 67092, "ELEMENT_SET_NO": 999, "REV_AT_EPOCH": 329, "BSTAR": -0.014326, "MEAN_MOTION_DOT": -0.01677685, "MEAN_MOTION_DDOT": 0}, "tle": {"line1": "1 67092U 25298T   25361.50002315 -.01677685  00000+0 -14326-1 0  9991", "line2": "2 67092  69.9998 207.9806 0003412 270.7383 222.6795 15.72202405  3293"}}, "geometry": {"type": "Point", "coordinates": [-163.98981296591435, -28.350785038363345]}}]}